CCSDS_OMM_VERS = 2.0
CREATION_DATE  = 
ORIGINATOR     = 

OBJECT_NAME    = UNKNOWN
OBJECT_ID      = 
CENTER_NAME    = EARTH
REF_FRAME      = TEME
TIME_SYSTEM    = UTC
MEAN_ELEMENT_THEORY = SGP/SGP4

EPOCH          = 2025-11-25T02:06:15.749856
MEAN_MOTION    = 10.71501017
ECCENTRICITY   = .1000336
INCLINATION    = 101.9026
RA_OF_ASC_NODE = 253.9409
ARG_OF_PERICENTER = 263.9281
MEAN_ANOMALY   = 84.6996

EPHEMERIS_TYPE = 0
CLASSIFICATION_TYPE = U
NORAD_CAT_ID   = 270246
ELEMENT_SET_NO = 999
REV_AT_EPOCH   = 22787
BSTAR          = -.19258718E-1
MEAN_MOTION_DOT = -.902E-5
MEAN_MOTION_DDOT = 0

CCSDS_OMM_VERS = 2.0
CREATION_DATE  = 
ORIGINATOR     = 

OBJECT_NAME    = UNKNOWN
OBJECT_ID      = 
CENTER_NAME    = EARTH
REF_FRAME      = TEME
TIME_SYSTEM    = UTC
MEAN_ELEMENT_THEORY = SGP/SGP4

EPOCH          = 2025-11-26T08:32:30.730272
MEAN_MOTION    = 12.78776743
ECCENTRICITY   = .0063533
INCLINATION    = 66.0676
RA_OF_ASC_NODE = 2.0495
ARG_OF_PERICENTER = 29.6986
MEAN_ANOMALY   = 330.7611

EPHEMERIS_TYPE = 0
CLASSIFICATION_TYPE = U
NORAD_CAT_ID   = 270247
ELEMENT_SET_NO = 999
REV_AT_EPOCH   = 26995
BSTAR          = .18641204E-2
MEAN_MOTION_DOT = .36E-5
MEAN_MOTION_DDOT = 0

CCSDS_OMM_VERS = 2.0
CREATION_DATE  = 
ORIGINATOR     = 

OBJECT_NAME    = UNKNOWN
OBJECT_ID      = 
CENTER_NAME    = EARTH
REF_FRAME      = TEME
TIME_SYSTEM    = UTC
MEAN_ELEMENT_THEORY = SGP/SGP4

EPOCH          = 2025-11-24T19:12:08.493984
MEAN_MOTION    = 12.25437861
ECCENTRICITY   = .00093335
INCLINATION    = 82.4756
RA_OF_ASC_NODE = 344.6557
ARG_OF_PERICENTER = 94.8593
MEAN_ANOMALY   = 265.3542

EPHEMERIS_TYPE = 0
CLASSIFICATION_TYPE = U
NORAD_CAT_ID   = 270248
ELEMENT_SET_NO = 999
REV_AT_EPOCH   = 25740
BSTAR          = .80093405E-2
MEAN_MOTION_DOT = .896E-5
MEAN_MOTION_DDOT = 0

CCSDS_OMM_VERS = 2.0
CREATION_DATE  = 
ORIGINATOR     = 

OBJECT_NAME    = UNKNOWN
OBJECT_ID      = 
CENTER_NAME    = EARTH
REF_FRAME      = TEME
TIME_SYSTEM    = UTC
MEAN_ELEMENT_THEORY = SGP/SGP4

EPOCH          = 2025-11-28T08:36:44.484480
MEAN_MOTION    = 12.95377957
ECCENTRICITY   = .00283262
INCLINATION    = 90.2370
RA_OF_ASC_NODE = 2.0769
ARG_OF_PERICENTER = 10.7595
MEAN_ANOMALY   = 349.4124

EPHEMERIS_TYPE = 0
CLASSIFICATION_TYPE = U
NORAD_CAT_ID   = 270249
ELEMENT_SET_NO = 999
REV_AT_EPOCH   = 27258
BSTAR          = .1092964E-2
MEAN_MOTION_DOT = .316E-5
MEAN_MOTION_DDOT = 0

CCSDS_OMM_VERS = 2.0
CREATION_DATE  = 
ORIGINATOR     = 

OBJECT_NAME    = UNKNOWN
OBJECT_ID      = 
CENTER_NAME    = EARTH
REF_FRAME      = TEME
TIME_SYSTEM    = UTC
MEAN_ELEMENT_THEORY = SGP/SGP4

EPOCH          = 2025-11-12T03:18:50.920704
MEAN_MOTION    = 12.59348981
ECCENTRICITY   = .02137999
INCLINATION    = 82.4391
RA_OF_ASC_NODE = 272.1763
ARG_OF_PERICENTER = 9.2995
MEAN_ANOMALY   = 351.1956

EPHEMERIS_TYPE = 0
CLASSIFICATION_TYPE = U
NORAD_CAT_ID   = 270250
ELEMENT_SET_NO = 999
REV_AT_EPOCH   = 26157
BSTAR          = .35281567E-1
MEAN_MOTION_DOT = .6631E-4
MEAN_MOTION_DDOT = 0

CCSDS_OMM_VERS = 2.0
CREATION_DATE  = 
ORIGINATOR     = 

OBJECT_NAME    = UNKNOWN
OBJECT_ID      = 
CENTER_NAME    = EARTH
REF_FRAME      = TEME
TIME_SYSTEM    = UTC
MEAN_ELEMENT_THEORY = SGP/SGP4

EPOCH          = 2025-11-15T13:29:44.753856
MEAN_MOTION    = 11.48515381
ECCENTRICITY   = .06691075
INCLINATION    = 102.3456
RA_OF_ASC_NODE = 251.2376
ARG_OF_PERICENTER = 211.0748
MEAN_ANOMALY   = 144.9009

EPHEMERIS_TYPE = 0
CLASSIFICATION_TYPE = U
NORAD_CAT_ID   = 270251
ELEMENT_SET_NO = 999
REV_AT_EPOCH   = 24030
BSTAR          = -.41458867E-1
MEAN_MOTION_DOT = -.3115E-4
MEAN_MOTION_DDOT = 0

CCSDS_OMM_VERS = 2.0
CREATION_DATE  = 
ORIGINATOR     = 

OBJECT_NAME    = UNKNOWN
OBJECT_ID      = 
CENTER_NAME    = EARTH
REF_FRAME      = TEME
TIME_SYSTEM    = UTC
MEAN_ELEMENT_THEORY = SGP/SGP4

EPOCH          = 2025-11-26T04:13:38.771616
MEAN_MOTION    = 12.62395919
ECCENTRICITY   = .00005971
INCLINATION    = 51.9800
RA_OF_ASC_NODE = 133.7270
ARG_OF_PERICENTER = 109.1923
MEAN_ANOMALY   = 250.9008

EPHEMERIS_TYPE = 0
CLASSIFICATION_TYPE = U
NORAD_CAT_ID   = 270252
ELEMENT_SET_NO = 999
REV_AT_EPOCH   = 26690
BSTAR          = .16107142E-3
MEAN_MOTION_DOT = -.75E-6
MEAN_MOTION_DDOT = 0

CCSDS_OMM_VERS = 2.0
CREATION_DATE  = 
ORIGINATOR     = 

OBJECT_NAME    = UNKNOWN
OBJECT_ID      = 
CENTER_NAME    = EARTH
REF_FRAME      = TEME
TIME_SYSTEM    = UTC
MEAN_ELEMENT_THEORY = SGP/SGP4

EPOCH          = 2025-11-20T09:13:51.053952
MEAN_MOTION    = 13.00181137
ECCENTRICITY   = .00353117
INCLINATION    = 90.2436
RA_OF_ASC_NODE = 2.1837
ARG_OF_PERICENTER = 65.4738
MEAN_ANOMALY   = 295.0059

EPHEMERIS_TYPE = 0
CLASSIFICATION_TYPE = U
NORAD_CAT_ID   = 270253
ELEMENT_SET_NO = 999
REV_AT_EPOCH   = 27231
BSTAR          = .15294627E-2
MEAN_MOTION_DOT = .47E-5
MEAN_MOTION_DDOT = 0

CCSDS_OMM_VERS = 2.0
CREATION_DATE  = 
ORIGINATOR     = 

OBJECT_NAME    = UNKNOWN
OBJECT_ID      = 
CENTER_NAME    = EARTH
REF_FRAME      = TEME
TIME_SYSTEM    = UTC
MEAN_ELEMENT_THEORY = SGP/SGP4

EPOCH          = 2025-11-29T07:54:09.201024
MEAN_MOTION    = 12.93248322
ECCENTRICITY   = .00354008
INCLINATION    = 90.2450
RA_OF_ASC_NODE = 3.1284
ARG_OF_PERICENTER = 77.3070
MEAN_ANOMALY   = 283.2002

EPHEMERIS_TYPE = 0
CLASSIFICATION_TYPE = U
NORAD_CAT_ID   = 270256
ELEMENT_SET_NO = 999
REV_AT_EPOCH   = 27318
BSTAR          = .66656629E-3
MEAN_MOTION_DOT = .19E-5
MEAN_MOTION_DDOT = 0

CCSDS_OMM_VERS = 2.0
CREATION_DATE  = 
ORIGINATOR     = 

OBJECT_NAME    = UNKNOWN
OBJECT_ID      = 
CENTER_NAME    = EARTH
REF_FRAME      = TEME
TIME_SYSTEM    = UTC
MEAN_ELEMENT_THEORY = SGP/SGP4

EPOCH          = 2025-11-27T07:12:18.603648
MEAN_MOTION    = 14.75795709
ECCENTRICITY   = .00809927
INCLINATION    = 86.0852
RA_OF_ASC_NODE = 337.2577
ARG_OF_PERICENTER = 355.1637
MEAN_ANOMALY   = 4.8788

EPHEMERIS_TYPE = 0
CLASSIFICATION_TYPE = U
NORAD_CAT_ID   = 270257
ELEMENT_SET_NO = 999
REV_AT_EPOCH   = 7667
BSTAR          = .76807369E-2
MEAN_MOTION_DOT = .55899E-3
MEAN_MOTION_DDOT = 0

CCSDS_OMM_VERS = 2.0
CREATION_DATE  = 
ORIGINATOR     = 

OBJECT_NAME    = UNKNOWN
OBJECT_ID      = 
CENTER_NAME    = EARTH
REF_FRAME      = TEME
TIME_SYSTEM    = UTC
MEAN_ELEMENT_THEORY = SGP/SGP4

EPOCH          = 2025-11-12T06:58:56.226720
MEAN_MOTION    = 12.33450779
ECCENTRICITY   = .0324429
INCLINATION    = 82.3767
RA_OF_ASC_NODE = 334.1839
ARG_OF_PERICENTER = 69.2754
MEAN_ANOMALY   = 294.2770

EPHEMERIS_TYPE = 0
CLASSIFICATION_TYPE = U
NORAD_CAT_ID   = 270258
ELEMENT_SET_NO = 999
REV_AT_EPOCH   = 25634
BSTAR          = .42766557E-1
MEAN_MOTION_DOT = .6278E-4
MEAN_MOTION_DDOT = 0

CCSDS_OMM_VERS = 2.0
CREATION_DATE  = 
ORIGINATOR     = 

OBJECT_NAME    = UNKNOWN
OBJECT_ID      = 
CENTER_NAME    = EARTH
REF_FRAME      = TEME
TIME_SYSTEM    = UTC
MEAN_ELEMENT_THEORY = SGP/SGP4

EPOCH          = 2025-11-17T14:06:13.912992
MEAN_MOTION    = 12.83333814
ECCENTRICITY   = .03726257
INCLINATION    = 63.2085
RA_OF_ASC_NODE = 69.6479
ARG_OF_PERICENTER = 20.3720
MEAN_ANOMALY   = 341.1700

EPHEMERIS_TYPE = 0
CLASSIFICATION_TYPE = U
NORAD_CAT_ID   = 270261
ELEMENT_SET_NO = 999
REV_AT_EPOCH   = 26701
BSTAR          = .12212519E-2
MEAN_MOTION_DOT = .315E-5
MEAN_MOTION_DDOT = 0

CCSDS_OMM_VERS = 2.0
CREATION_DATE  = 
ORIGINATOR     = 

OBJECT_NAME    = UNKNOWN
OBJECT_ID      = 
CENTER_NAME    = EARTH
REF_FRAME      = TEME
TIME_SYSTEM    = UTC
MEAN_ELEMENT_THEORY = SGP/SGP4

EPOCH          = 2025-11-08T20:31:18.565536
MEAN_MOTION    = 12.95545060
ECCENTRICITY   = .00320199
INCLINATION    = 90.2457
RA_OF_ASC_NODE = 4.3409
ARG_OF_PERICENTER = 35.7919
MEAN_ANOMALY   = 324.5338

EPHEMERIS_TYPE = 0
CLASSIFICATION_TYPE = U
NORAD_CAT_ID   = 270262
ELEMENT_SET_NO = 999
REV_AT_EPOCH   = 26774
BSTAR          = .77414961E-3
MEAN_MOTION_DOT = .227E-5
MEAN_MOTION_DDOT = 0

CCSDS_OMM_VERS = 2.0
CREATION_DATE  = 
ORIGINATOR     = 

OBJECT_NAME    = UNKNOWN
OBJECT_ID      = 
CENTER_NAME    = EARTH
REF_FRAME      = TEME
TIME_SYSTEM    = UTC
MEAN_ELEMENT_THEORY = SGP/SGP4

EPOCH          = 2025-11-26T03:37:39.997632
MEAN_MOTION    = 14.34796233
ECCENTRICITY   = .00349384
INCLINATION    = 86.4341
RA_OF_ASC_NODE = 126.0963
ARG_OF_PERICENTER = 38.7335
MEAN_ANOMALY   = 321.6356

EPHEMERIS_TYPE = 0
CLASSIFICATION_TYPE = U
NORAD_CAT_ID   = 270263
ELEMENT_SET_NO = 999
REV_AT_EPOCH   = 30047
BSTAR          = .52732007E-3
MEAN_MOTION_DOT = .1524E-4
MEAN_MOTION_DDOT = 0

CCSDS_OMM_VERS = 2.0
CREATION_DATE  = 
ORIGINATOR     = 

OBJECT_NAME    = UNKNOWN
OBJECT_ID      = 
CENTER_NAME    = EARTH
REF_FRAME      = TEME
TIME_SYSTEM    = UTC
MEAN_ELEMENT_THEORY = SGP/SGP4

EPOCH          = 2025-11-28T03:46:31.842336
MEAN_MOTION    = 13.15390089
ECCENTRICITY   = .00213341
INCLINATION    = 82.5465
RA_OF_ASC_NODE = 286.9340
ARG_OF_PERICENTER = 39.0185
MEAN_ANOMALY   = 321.2470

EPHEMERIS_TYPE = 0
CLASSIFICATION_TYPE = U
NORAD_CAT_ID   = 270264
ELEMENT_SET_NO = 999
REV_AT_EPOCH   = 27422
BSTAR          = .32526847E-2
MEAN_MOTION_DOT = .1236E-4
MEAN_MOTION_DDOT = 0

CCSDS_OMM_VERS = 2.0
CREATION_DATE  = 
ORIGINATOR     = 

OBJECT_NAME    = UNKNOWN
OBJECT_ID      = 
CENTER_NAME    = EARTH
REF_FRAME      = TEME
TIME_SYSTEM    = UTC
MEAN_ELEMENT_THEORY = SGP/SGP4

EPOCH          = 2025-11-24T12:19:05.836800
MEAN_MOTION    = 12.71581562
ECCENTRICITY   = .01835358
INCLINATION    = 82.4218
RA_OF_ASC_NODE = 245.1086
ARG_OF_PERICENTER = 279.0051
MEAN_ANOMALY   = 79.0314

EPHEMERIS_TYPE = 0
CLASSIFICATION_TYPE = U
NORAD_CAT_ID   = 270265
ELEMENT_SET_NO = 999
REV_AT_EPOCH   = 26327
BSTAR          = .11566231E-1
MEAN_MOTION_DOT = .2518E-4
MEAN_MOTION_DDOT = 0

